[{"OBJECT_NAME":"YAOGAN-31 02B","OBJECT_ID":"2021-007B","EPOCH":"2026-03-09T23:16:09.070752","MEAN_MOTION":13.45439674,"ECCENTRICITY":0.01677916,"INCLINATION":63.4048,"RA_OF_ASC_NODE":37.1021,"ARG_OF_PERICENTER":0.2333,"MEAN_ANOMALY":359.8743,"EPHEMERIS_TYPE":0,"CLASSIFICATION_TYPE":"U","NORAD_CAT_ID":47533,"ELEMENT_SET_NO":999,"REV_AT_EPOCH":25088,"BSTAR":0.0002025625,"MEAN_MOTION_DOT":4.1e-7,"MEAN_MOTION_DDOT":0},{"OBJECT_NAME":"SL-16 R\/B","OBJECT_ID":"2001-056F","EPOCH":"2026-03-09T22:06:06.242112","MEAN_MOTION":13.71092203,"ECCENTRICITY":0.0014332,"INCLINATION":99.7679,"RA_OF_ASC_NODE":234.807,"ARG_OF_PERICENTER":349.595,"MEAN_ANOMALY":174.9101,"EPHEMERIS_TYPE":0,"CLASSIFICATION_TYPE":"U","NORAD_CAT_ID":27006,"ELEMENT_SET_NO":999,"REV_AT_EPOCH":21322,"BSTAR":3.0712425e-5,"MEAN_MOTION_DOT":-1.9e-7,"MEAN_MOTION_DDOT":0}]
